[{"OBJECT_NAME":"ONEWEB-0068","OBJECT_ID":"2020-020Y","EPOCH":"2026-03-09T21:23:24.156384","MEAN_MOTION":13.11417597,"ECCENTRICITY":0.00016411,"INCLINATION":87.8871,"RA_OF_ASC_NODE":40.7983,"ARG_OF_PERICENTER":84.0207,"MEAN_ANOMALY":276.1108,"EPHEMERIS_TYPE":0,"CLASSIFICATION_TYPE":"U","NORAD_CAT_ID":45446,"ELEMENT_SET_NO":999,"REV_AT_EPOCH":28958,"BSTAR":0.00046109211,"MEAN_MOTION_DOT":1.76e-6,"MEAN_MOTION_DDOT":0},{"OBJECT_NAME":"COSMOS 1691 DEB","OBJECT_ID":"1985-094L","EPOCH":"2026-03-07T22:09:28.514880","MEAN_MOTION":13.19792324,"ECCENTRICITY":0.00487005,"INCLINATION":82.6355,"RA_OF_ASC_NODE":224.5327,"ARG_OF_PERICENTER":346.5093,"MEAN_ANOMALY":138.7403,"EPHEMERIS_TYPE":0,"CLASSIFICATION_TYPE":"U","NORAD_CAT_ID":16267,"ELEMENT_SET_NO":999,"REV_AT_EPOCH":53103,"BSTAR":0.0093500911,"MEAN_MOTION_DOT":3.784e-5,"MEAN_MOTION_DDOT":0}]
